{
   "id":"1541360007667",
   "start":1541360007667,
   "end":0,
   "sampleRate":0,
   "inputSampleRate":0,
   "frequency":437425000,
   "actualFrequency":437433300,
   "decoder":"TELEMETRY",
   "satellite":"41460",
   "bandwidth":0,
   "tle":{
      "line1":"AAUSAT4",
      "line2":"1 41460U 16025E   18307.40997805  .00001852  00000-0  98049-4 0  9990",
      "line3":"2 41460  98.1158  18.1483 0160661  36.7969 324.4163 15.06405681138443"
   },
   "groundStation":{
      "lat":56.189,
      "lon":38.174
   }
}